[{"OBJECT_NAME":"STARLINK-5892","OBJECT_ID":"2023-037AS","EPOCH":"2026-03-09T21:10:56.509536","MEAN_MOTION":14.98326028,"ECCENTRICITY":0.00029087,"INCLINATION":69.9982,"RA_OF_ASC_NODE":263.9038,"ARG_OF_PERICENTER":272.9824,"MEAN_ANOMALY":87.1002,"EPHEMERIS_TYPE":0,"CLASSIFICATION_TYPE":"U","NORAD_CAT_ID":55954,"ELEMENT_SET_NO":999,"REV_AT_EPOCH":16450,"BSTAR":-5.3282254e-5,"MEAN_MOTION_DOT":-7.29e-6,"MEAN_MOTION_DDOT":0},{"OBJECT_NAME":"SHIYAN-24C 03","OBJECT_ID":"2023-206C","EPOCH":"2026-03-09T21:23:43.281888","MEAN_MOTION":14.97896938,"ECCENTRICITY":0.0002411,"INCLINATION":97.3969,"RA_OF_ASC_NODE":41.7507,"ARG_OF_PERICENTER":66.6237,"MEAN_ANOMALY":293.524,"EPHEMERIS_TYPE":0,"CLASSIFICATION_TYPE":"U","NORAD_CAT_ID":58652,"ELEMENT_SET_NO":999,"REV_AT_EPOCH":12043,"BSTAR":0.00011928,"MEAN_MOTION_DOT":1.35e-5,"MEAN_MOTION_DDOT":0}]
